NORAD_CAT_ID,OBJECT_NAME,OBJECT_TYPE,EPOCH,MEAN_MOTION,ECCENTRICITY,INCLINATION,RA_OF_ASC_NODE,ARG_OF_PERICENTER,MEAN_ANOMALY,BSTAR,MEAN_MOTION_DOT,MEAN_MOTION_DDOT,TLE_LINE0,TLE_LINE1,TLE_LINE2,SEMIMAJOR_AXIS,PERIOD,APOGEE,PERIGEE,DECAYED
51143.0,STARLINK-3184,PAYLOAD,2023-05-30 19:34:30,15.08840225,0.0001067,53.2164,180.576,80.8514,279.2599,3.2438e-05,2.29e-06,0.0,0 STARLINK-3184,1 51143U 22005AR  23150.81562876  .00000229  00000-0  32438-4 0  9994,2 51143  53.2164 180.5760 0001067  80.8514 279.2599 15.08840225 75532,6917.88,95.438,540.483,539.007,0.0
51143.0,STARLINK-3184,PAYLOAD,2023-05-31 08:17:35,15.08843265,9.76e-05,53.2156,178.1962,85.263,274.8473,5.4999e-05,5.88e-06,0.0,0 STARLINK-3184,1 51143U 22005AR  23151.34554527  .00000588  00000-0  54999-4 0  9991,2 51143  53.2156 178.1962 0000976  85.2630 274.8473 15.08843265 76727,6917.87,95.437,540.411,539.06,0.0
51143.0,STARLINK-3184,PAYLOAD,2023-06-01 01:46:49,15.08837619,9.49e-05,53.2155,174.9253,82.5451,277.5649,6.7192e-05,7.82e-06,0.0,0 STARLINK-3184,1 51143U 22005AR  23152.07418807  .00000782  00000-0  67192-4 0  9997,2 51143  53.2155 174.9253 0000949  82.5451 277.5649 15.08837619 76837,6917.888,95.438,540.409,539.096,0.0
51143.0,STARLINK-3184,PAYLOAD,2023-06-01 08:08:22,15.08839136,9.74e-05,53.2155,173.7356,81.1088,279.0015,6.6264e-05,7.67e-06,0.0,0 STARLINK-3184,1 51143U 22005AR  23152.33914761  .00000767  00000-0  66264-4 0  9998,2 51143  53.2155 173.7356 0000974  81.1088 279.0015 15.08839136 75768,6917.883,95.438,540.422,539.074,0.0
51143.0,STARLINK-3184,PAYLOAD,2023-06-02 07:59:09,15.08834928,9.96e-05,53.2153,169.2751,85.4117,274.6989,-1.1478e-05,-4.7e-06,0.0,0 STARLINK-3184,1 51143U 22005AR  23153.33275356 -.00000470  00000-0 -11478-4 0  9999,2 51143  53.2153 169.2751 0000996  85.4117 274.6989 15.08834928 77025,6917.896,95.438,540.45,539.072,0.0
51143.0,STARLINK-3184,PAYLOAD,2023-06-02 17:31:28,15.0883551,9.98e-05,53.2154,167.491,86.419,273.6916,1.2668e-06,-2.68e-06,0.0,0 STARLINK-3184,1 51143U 22005AR  23153.73019406 -.00000268  00000-0  12668-5 0  9992,2 51143  53.2154 167.4910 0000998  86.4190 273.6916 15.08835510 75976,6917.894,95.438,540.45,539.069,0.0
51143.0,STARLINK-3184,PAYLOAD,2023-06-03 06:14:33,15.08837222,9.94e-05,53.2154,165.1118,82.1164,277.9941,4.0201e-05,3.52e-06,0.0,0 STARLINK-3184,1 51143U 22005AR  23154.26011269  .00000352  00000-0  40201-4 0  9996,2 51143  53.2154 165.1118 0000994  82.1164 277.9941 15.08837222 76058,6917.889,95.438,540.442,539.066,0.0
51143.0,STARLINK-3184,PAYLOAD,2023-06-03 17:22:15,15.08836606,9.95e-05,53.2153,163.03,78.5022,281.6081,4.5677e-05,4.39e-06,0.0,0 STARLINK-3184,1 51143U 22005AR  23154.72379370  .00000439  00000-0  45677-4 0  9995,2 51143  53.2153 163.0300 0000995  78.5022 281.6081 15.08836606 77233,6917.891,95.438,540.444,539.067,0.0
51143.0,STARLINK-3184,PAYLOAD,2023-06-04 07:40:44,15.08833712,9.87e-05,53.2154,160.3542,82.3767,277.7337,5.6531e-05,6.12e-06,0.0,0 STARLINK-3184,1 51143U 22005AR  23155.31995724  .00000612  00000-0  56531-4 0  9992,2 51143  53.2154 160.3542 0000987  82.3767 277.7337 15.08833712 76214,6917.9,95.438,540.447,539.082,0.0
51143.0,STARLINK-3184,PAYLOAD,2023-06-05 04:20:44,15.08841362,9.92e-05,53.2157,156.4895,89.9609,270.1497,5.6473e-05,6.11e-06,0.0,0 STARLINK-3184,1 51143U 22005AR  23156.18107326  .00000611  00000-0  56473-4 0  9995,2 51143  53.2157 156.4895 0000992  89.9609 270.1497 15.08841362 77459,6917.876,95.437,540.427,539.055,0.0
51143.0,STARLINK-3184,PAYLOAD,2023-06-05 09:06:54,15.08841867,0.0001047,53.2158,155.596,81.26,278.851,6.6844e-05,7.76e-06,0.0,0 STARLINK-3184,1 51143U 22005AR  23156.37979267  .00000776  00000-0  66844-4 0  9992,2 51143  53.2158 155.5960 0001047  81.2600 278.8510 15.08841867 76372,6917.875,95.437,540.464,539.015,0.0
51143.0,STARLINK-3184,PAYLOAD,2023-06-05 17:03:49,15.08839761,0.000102,53.2157,154.1092,83.8593,276.2516,4.9332e-05,4.97e-06,0.0,0 STARLINK-3184,1 51143U 22005AR  23156.71099447  .00000497  00000-0  49332-4 0  9996,2 51143  53.2157 154.1092 0001020  83.8593 276.2516 15.08839761 76426,6917.881,95.438,540.452,539.04,0.0
51143.0,STARLINK-3184,PAYLOAD,2023-06-06 08:57:41,15.0884004,0.0001037,53.2156,151.1355,83.9814,276.1296,4.8429e-05,4.83e-06,0.0,0 STARLINK-3184,1 51143U 22005AR  23157.37339487  .00000483  00000-0  48429-4 0  9991,2 51143  53.2156 151.1355 0001037  83.9814 276.1296 15.08840040 77639,6917.88,95.438,540.463,539.028,0.0
51143.0,STARLINK-3184,PAYLOAD,2023-06-07 08:48:28,15.08841085,0.000108,53.216,146.6758,82.3127,277.7988,1.4389e-05,-5.9e-07,0.0,0 STARLINK-3184,1 51143U 22005AR  23158.36699578 -.00000059  00000-0  14389-4 0  9999,2 51143  53.2160 146.6758 0001080  82.3127 277.7988 15.08841085 76676,6917.877,95.437,540.489,538.995,0.0
51143.0,STARLINK-3184,PAYLOAD,2023-06-07 16:45:24,15.08840756,0.0001084,53.216,145.1891,81.5239,278.5876,3.2928e-05,2.36e-06,0.0,0 STARLINK-3184,1 51143U 22005AR  23158.69819527  .00000236  00000-0  32928-4 0  9998,2 51143  53.2160 145.1891 0001084  81.5239 278.5876 15.08840756 77835,6917.878,95.438,540.493,538.993,0.0
51143.0,STARLINK-3184,PAYLOAD,2023-06-08 08:39:15,15.08842962,0.0001102,53.2161,142.215,84.9393,275.1725,6.6946e-05,7.78e-06,0.0,0 STARLINK-3184,1 51143U 22005AR  23159.36059267  .00000778  00000-0  66946-4 0  9998,2 51143  53.2161 142.2150 0001102  84.9393 275.1725 15.08842962 76826,6917.871,95.437,540.499,538.974,0.0
51143.0,STARLINK-3184,PAYLOAD,2023-06-08 22:57:43,15.08838434,0.0001112,53.2159,139.5382,86.6498,273.4621,4.4388e-05,4.19e-06,0.0,0 STARLINK-3184,1 51143U 22005AR  23159.95675622  .00000419  00000-0  44388-4 0  9990,2 51143  53.2159 139.5382 0001112  86.6498 273.4621 15.08838434 78024,6917.885,95.438,540.519,538.981,0.0
51143.0,STARLINK-3184,PAYLOAD,2023-06-09 08:30:02,15.08840776,0.0001105,53.216,137.7537,87.626,272.4859,5.4363e-05,5.78e-06,0.0,0 STARLINK-3184,1 51143U 22005AR  23160.35419442  .00000578  00000-0  54363-4 0  9992,2 51143  53.2160 137.7537 0001105  87.6260 272.4859 15.08840776 76974,6917.878,95.438,540.507,538.979,0.0
51143.0,STARLINK-3184,PAYLOAD,2023-06-10 05:10:03,15.0883962,0.0001116,53.2155,133.8878,87.7123,272.3997,3.0262e-05,1.94e-06,0.0,0 STARLINK-3184,1 51143U 22005AR  23161.21531689  .00000194  00000-0  30262-4 0  9992,2 51143  53.2155 133.8878 0001116  87.7123 272.3997 15.08839620 78211,6917.882,95.438,540.519,538.975,0.0
51143.0,STARLINK-3184,PAYLOAD,2023-06-10 08:20:49,15.08840728,0.0001078,53.2159,133.2929,85.8004,274.3111,2.5015e-05,1.1e-06,0.0,0 STARLINK-3184,1 51143U 22005AR  23161.34779630  .00000110  00000-0  25015-4 0  9994,2 51143  53.2159 133.2929 0001078  85.8004 274.3111 15.08840728 77120,6917.878,95.438,540.489,538.997,0.0
51143.0,STARLINK-3184,PAYLOAD,2023-06-11 06:36:13,15.08838257,0.0001135,53.2179,129.1333,94.3943,265.7179,3.7986e-05,3.17e-06,0.0,0 STARLINK-3184,1 51143U 22005AR  23162.27515993  .00000317  00000-0  37986-4 0  9996,2 51143  53.2179 129.1333 0001135  94.3943 265.7179 15.08838257 78376,6917.886,95.438,540.536,538.966,0.0
51143.0,STARLINK-3184,PAYLOAD,2023-06-11 14:33:09,15.08836936,0.0001075,53.2173,127.6459,92.3995,267.712,1.0985e-05,-1.13e-06,0.0,0 STARLINK-3184,1 51143U 22005AR  23162.60636209 -.00000113  00000-0  10985-4 0  9992,2 51143  53.2173 127.6459 0001075  92.3995 267.7120 15.08836936 77313,6917.89,95.438,540.498,539.011,0.0
51143.0,STARLINK-3184,PAYLOAD,2023-06-12 06:27:01,15.08836148,0.000115,53.2171,124.6721,96.7089,263.4034,7.7138e-05,9.4e-06,0.0,0 STARLINK-3184,1 51143U 22005AR  23163.26876306  .00000940  00000-0  77138-4 0  9999,2 51143  53.2171 124.6721 0001150  96.7089 263.4034 15.08836148 77419,6917.892,95.438,540.553,538.962,0.0
51143.0,STARLINK-3184,PAYLOAD,2023-06-12 14:23:57,15.08835758,0.0001135,53.2172,123.1852,94.146,265.9662,2.4897e-05,1.08e-06,0.0,0 STARLINK-3184,1 51143U 22005AR  23163.59996555  .00000108  00000-0  24897-4 0  9994,2 51143  53.2172 123.1852 0001135  94.1460 265.9662 15.08835758 78575,6917.893,95.438,540.544,538.973,0.0
51143.0,STARLINK-3184,PAYLOAD,2023-06-13 06:17:48,15.08839947,0.0001114,53.2169,120.2111,91.8485,268.2634,6.2499e-05,7.07e-06,0.0,0 STARLINK-3184,1 51143U 22005AR  23164.26236334  .00000707  00000-0  62499-4 0  9996,2 51143  53.2169 120.2111 0001114  91.8485 268.2634 15.08839947 77562,6917.881,95.438,540.516,538.975,0.0
51143.0,STARLINK-3184,PAYLOAD,2023-06-13 20:36:16,15.08833916,0.000111,53.2169,117.5348,91.0398,269.0722,5.9013e-05,6.51e-06,0.0,0 STARLINK-3184,1 51143U 22005AR  23164.85852808  .00000651  00000-0  59013-4 0  9997,2 51143  53.2169 117.5348 0001110  91.0398 269.0722 15.08833916 77651,6917.899,95.438,540.532,538.996,0.0
51143.0,STARLINK-3184,PAYLOAD,2023-06-14 02:57:49,15.08833587,0.0001123,53.2171,116.3449,90.0288,270.0833,5.3168e-05,5.58e-06,0.0,0 STARLINK-3184,1 51143U 22005AR  23165.12348957  .00000558  00000-0  53168-4 0  9994,2 51143  53.2171 116.3449 0001123  90.0288 270.0833 15.08833587 78801,6917.9,95.438,540.542,538.988,0.0
51143.0,STARLINK-3184,PAYLOAD,2023-06-15 02:48:35,15.08845046,0.0001191,53.2171,111.8843,87.4507,272.6621,5.5539e-05,5.96e-06,0.0,0 STARLINK-3184,1 51143U 22005AR  23166.11708298  .00000596  00000-0  55539-4 0  9998,2 51143  53.2171 111.8843 0001191  87.4507 272.6621 15.08845046 78950,6917.865,95.437,540.554,538.906,0.0
51143.0,STARLINK-3184,PAYLOAD,2023-06-15 05:59:22,15.08846792,0.000119,53.2172,111.2892,88.4716,271.6412,6.8933e-05,8.1e-06,0.0,0 STARLINK-3184,1 51143U 22005AR  23166.24956096  .00000810  00000-0  68933-4 0  9994,2 51143  53.2172 111.2892 0001190  88.4716 271.6412 15.08846792 77866,6917.86,95.437,540.548,538.901,0.0
51143.0,STARLINK-3184,PAYLOAD,2023-06-16 05:50:08,15.08847137,0.000127,53.2168,106.8273,93.34,266.7737,9.246e-05,1.184e-05,0.0,0 STARLINK-3184,1 51143U 22005AR  23167.24315951  .00001184  00000-0  92460-4 0  9991,2 51143  53.2168 106.8273 0001270  93.3400 266.7737 15.08847137 79128,6917.859,95.437,540.602,538.845,0.0
